<?xml version="1.0" encoding="UTF-8"?>
<osm version="0.6" generator="Overpass API 0.7.62 1b6436f1">
  <note>The data included in this document is from www.openstreetmap.org. 
        The data is made available under ODbL.</note>
  <meta osm_base="2025-02-23T19:38:04Z" areas="2024-12-31T00:49:33Z"/>

  <relation id="2676526">
    <tag k="admin_level" v="10"/>
    <tag k="boundary" v="administrative"/>
    <tag k="is_in:city" v="Portland"/>
    <tag k="is_in:county" v="Multnomah"/>
    <tag k="is_in:state" v="Oregon"/>
    <tag k="name" v="Lents"/>
  </relation>

  <relation id="6549433">
    <tag k="admin_level" v="10"/>
    <tag k="boundary" v="administrative"/>
    <tag k="is_in:city" v="Portland"/>
    <tag k="name" v="Roseway"/>
  </relation>

  <relation id="6549638">
    <tag k="admin_level" v="10"/>
    <tag k="boundary" v="administrative"/>
    <tag k="is_in:city" v="Portland"/>
    <tag k="name" v="Cully"/>
  </relation>

  <relation id="7631277">
    <tag k="admin_level" v="10"/>
    <tag k="boundary" v="administrative"/>
    <tag k="is_in:city" v="Portland"/>
    <tag k="name" v="Centennial"/>
  </relation>

</osm>
